COSMOS 2151             
1 21422U 91042A   25328.74104713  .00001991  00000+0  15945-3 0  9990
2 21422  82.4973 184.8458 0013924  57.0384 303.2176 14.99592070847467
SL-14 R/B               
1 21423U 91042B   25328.68380646  .00000509  00000+0  61619-4 0  9999
2 21423  82.4914 318.6571 0015880 222.3656 137.6333 14.81714147837520
ERS-1                   
1 21574U 91050A   25328.59335997  .00000347  00000+0  12588-3 0  9994
2 21574  98.7915 339.1938 0032521 152.4305 207.8615 14.39344257800615
ARIANE 40 R/B           
1 21610U 91050F   25328.68612536  .00000396  00000+0  13126-3 0  9995
2 21610  98.2188  19.7661 0003861  49.8083 310.3445 14.42790972803857
INTERCOSMOS 25          
1 21819U 91086A   25328.63693618  .00001128  00000+0  22136-3 0  9995
2 21819  82.6069  13.5215 1487589 343.4318  12.2698 12.11639517483963
SL-8 R/B                
1 21876U 92008B   25328.52051030  .00000137  00000+0  12497-3 0  9995
2 21876  82.9268 345.9996 0036026  69.4376  93.7262 13.75953187694959
SL-8 R/B                
1 21938U 92020B   25328.72761234  .00000078  00000+0  65496-4 0  9996
2 21938  82.9316 231.6913 0027793 229.4405 186.7875 13.75523527686702
USA 81                  
1 21949U 92023A   25328.73072472  .00000204  00000+0  68292-4 0  9999
2 21949  85.0097 191.9612 0002263  66.8585 293.2846 14.32317591 79765
COSMOS 2219             
1 22219U 92076A   25328.47387850 -.00000170  00000+0 -64546-4 0  9990
2 22219  71.0606 238.0134 0018453 352.7927   7.2927 14.14066779703502
SL-16 R/B               
1 22220U 92076B   25328.66124293  .00000241  00000+0  14382-3 0  9992
2 22220  71.0012  49.6129 0015104 257.5134 254.5546 14.16836768706958
COSMOS 2221             
1 22236U 92080A   25328.68801176  .00002377  00000+0  21110-3 0  9997
2 22236  82.5055  19.6015 0014624 179.3695 180.7548 14.95660660765094
SL-16 R/B               
1 22285U 92093B   25328.15756272 -.00000146  00000+0 -50549-4 0  9996
2 22285  71.0217 225.8016 0002086 126.8301 233.3014 14.15427865698226
