CCSDS_OMM_VERS = 2.0
CREATION_DATE  = 
ORIGINATOR     = 

OBJECT_NAME    = COSMOS 2151
OBJECT_ID      = 1991-042A
CENTER_NAME    = EARTH
REF_FRAME      = TEME
TIME_SYSTEM    = UTC
MEAN_ELEMENT_THEORY = SGP/SGP4

EPOCH          = 2025-11-24T17:47:06.472032
MEAN_MOTION    = 14.99592070
ECCENTRICITY   = .0013924
INCLINATION    = 82.4973
RA_OF_ASC_NODE = 184.8458
ARG_OF_PERICENTER = 57.0384
MEAN_ANOMALY   = 303.2176

EPHEMERIS_TYPE = 0
CLASSIFICATION_TYPE = U
NORAD_CAT_ID   = 21422
ELEMENT_SET_NO = 999
REV_AT_EPOCH   = 84746
BSTAR          = .15945E-3
MEAN_MOTION_DOT = .1991E-4
MEAN_MOTION_DDOT = 0

CCSDS_OMM_VERS = 2.0
CREATION_DATE  = 
ORIGINATOR     = 

OBJECT_NAME    = SL-14 R/B
OBJECT_ID      = 1991-042B
CENTER_NAME    = EARTH
REF_FRAME      = TEME
TIME_SYSTEM    = UTC
MEAN_ELEMENT_THEORY = SGP/SGP4

EPOCH          = 2025-11-24T16:24:40.878144
MEAN_MOTION    = 14.81714147
ECCENTRICITY   = .001588
INCLINATION    = 82.4914
RA_OF_ASC_NODE = 318.6571
ARG_OF_PERICENTER = 222.3656
MEAN_ANOMALY   = 137.6333

EPHEMERIS_TYPE = 0
CLASSIFICATION_TYPE = U
NORAD_CAT_ID   = 21423
ELEMENT_SET_NO = 999
REV_AT_EPOCH   = 83752
BSTAR          = .61619E-4
MEAN_MOTION_DOT = .509E-5
MEAN_MOTION_DDOT = 0

CCSDS_OMM_VERS = 2.0
CREATION_DATE  = 
ORIGINATOR     = 

OBJECT_NAME    = ERS-1
OBJECT_ID      = 1991-050A
CENTER_NAME    = EARTH
REF_FRAME      = TEME
TIME_SYSTEM    = UTC
MEAN_ELEMENT_THEORY = SGP/SGP4

EPOCH          = 2025-11-24T14:14:26.301408
MEAN_MOTION    = 14.39344257
ECCENTRICITY   = .0032521
INCLINATION    = 98.7915
RA_OF_ASC_NODE = 339.1938
ARG_OF_PERICENTER = 152.4305
MEAN_ANOMALY   = 207.8615

EPHEMERIS_TYPE = 0
CLASSIFICATION_TYPE = U
NORAD_CAT_ID   = 21574
ELEMENT_SET_NO = 999
REV_AT_EPOCH   = 80061
BSTAR          = .12588E-3
MEAN_MOTION_DOT = .347E-5
MEAN_MOTION_DDOT = 0

CCSDS_OMM_VERS = 2.0
CREATION_DATE  = 
ORIGINATOR     = 

OBJECT_NAME    = ARIANE 40 R/B
OBJECT_ID      = 1991-050F
CENTER_NAME    = EARTH
REF_FRAME      = TEME
TIME_SYSTEM    = UTC
MEAN_ELEMENT_THEORY = SGP/SGP4

EPOCH          = 2025-11-24T16:28:01.231104
MEAN_MOTION    = 14.42790972
ECCENTRICITY   = .0003861
INCLINATION    = 98.2188
RA_OF_ASC_NODE = 19.7661
ARG_OF_PERICENTER = 49.8083
MEAN_ANOMALY   = 310.3445

EPHEMERIS_TYPE = 0
CLASSIFICATION_TYPE = U
NORAD_CAT_ID   = 21610
ELEMENT_SET_NO = 999
REV_AT_EPOCH   = 80385
BSTAR          = .13126E-3
MEAN_MOTION_DOT = .396E-5
MEAN_MOTION_DDOT = 0

CCSDS_OMM_VERS = 2.0
CREATION_DATE  = 
ORIGINATOR     = 

OBJECT_NAME    = INTERCOSMOS 25
OBJECT_ID      = 1991-086A
CENTER_NAME    = EARTH
REF_FRAME      = TEME
TIME_SYSTEM    = UTC
MEAN_ELEMENT_THEORY = SGP/SGP4

EPOCH          = 2025-11-24T15:17:11.285952
MEAN_MOTION    = 12.11639517
ECCENTRICITY   = .1487589
INCLINATION    = 82.6069
RA_OF_ASC_NODE = 13.5215
ARG_OF_PERICENTER = 343.4318
MEAN_ANOMALY   = 12.2698

EPHEMERIS_TYPE = 0
CLASSIFICATION_TYPE = U
NORAD_CAT_ID   = 21819
ELEMENT_SET_NO = 999
REV_AT_EPOCH   = 48396
BSTAR          = .22136E-3
MEAN_MOTION_DOT = .1128E-4
MEAN_MOTION_DDOT = 0

CCSDS_OMM_VERS = 2.0
CREATION_DATE  = 
ORIGINATOR     = 

OBJECT_NAME    = SL-8 R/B
OBJECT_ID      = 1992-008B
CENTER_NAME    = EARTH
REF_FRAME      = TEME
TIME_SYSTEM    = UTC
MEAN_ELEMENT_THEORY = SGP/SGP4

EPOCH          = 2025-11-24T12:29:32.089920
MEAN_MOTION    = 13.75953187
ECCENTRICITY   = .0036026
INCLINATION    = 82.9268
RA_OF_ASC_NODE = 345.9996
ARG_OF_PERICENTER = 69.4376
MEAN_ANOMALY   = 93.7262

EPHEMERIS_TYPE = 0
CLASSIFICATION_TYPE = U
NORAD_CAT_ID   = 21876
ELEMENT_SET_NO = 999
REV_AT_EPOCH   = 69495
BSTAR          = .12497E-3
MEAN_MOTION_DOT = .137E-5
MEAN_MOTION_DDOT = 0

CCSDS_OMM_VERS = 2.0
CREATION_DATE  = 
ORIGINATOR     = 

OBJECT_NAME    = SL-8 R/B
OBJECT_ID      = 1992-020B
CENTER_NAME    = EARTH
REF_FRAME      = TEME
TIME_SYSTEM    = UTC
MEAN_ELEMENT_THEORY = SGP/SGP4

EPOCH          = 2025-11-24T17:27:45.706176
MEAN_MOTION    = 13.75523527
ECCENTRICITY   = .0027793
INCLINATION    = 82.9316
RA_OF_ASC_NODE = 231.6913
ARG_OF_PERICENTER = 229.4405
MEAN_ANOMALY   = 186.7875

EPHEMERIS_TYPE = 0
CLASSIFICATION_TYPE = U
NORAD_CAT_ID   = 21938
ELEMENT_SET_NO = 999
REV_AT_EPOCH   = 68670
BSTAR          = .65496E-4
MEAN_MOTION_DOT = .78E-6
MEAN_MOTION_DDOT = 0

CCSDS_OMM_VERS = 2.0
CREATION_DATE  = 
ORIGINATOR     = 

OBJECT_NAME    = USA 81
OBJECT_ID      = 1992-023A
CENTER_NAME    = EARTH
REF_FRAME      = TEME
TIME_SYSTEM    = UTC
MEAN_ELEMENT_THEORY = SGP/SGP4

EPOCH          = 2025-11-24T17:32:14.615808
MEAN_MOTION    = 14.32317591
ECCENTRICITY   = .0002263
INCLINATION    = 85.0097
RA_OF_ASC_NODE = 191.9612
ARG_OF_PERICENTER = 66.8585
MEAN_ANOMALY   = 293.2846

EPHEMERIS_TYPE = 0
CLASSIFICATION_TYPE = U
NORAD_CAT_ID   = 21949
ELEMENT_SET_NO = 999
REV_AT_EPOCH   = 7976
BSTAR          = .68292E-4
MEAN_MOTION_DOT = .204E-5
MEAN_MOTION_DDOT = 0

CCSDS_OMM_VERS = 2.0
CREATION_DATE  = 
ORIGINATOR     = 

OBJECT_NAME    = COSMOS 2219
OBJECT_ID      = 1992-076A
CENTER_NAME    = EARTH
REF_FRAME      = TEME
TIME_SYSTEM    = UTC
MEAN_ELEMENT_THEORY = SGP/SGP4

EPOCH          = 2025-11-24T11:22:23.102400
MEAN_MOTION    = 14.14066779
ECCENTRICITY   = .0018453
INCLINATION    = 71.0606
RA_OF_ASC_NODE = 238.0134
ARG_OF_PERICENTER = 352.7927
MEAN_ANOMALY   = 7.2927

EPHEMERIS_TYPE = 0
CLASSIFICATION_TYPE = U
NORAD_CAT_ID   = 22219
ELEMENT_SET_NO = 999
REV_AT_EPOCH   = 70350
BSTAR          = -.64546E-4
MEAN_MOTION_DOT = -.17E-5
MEAN_MOTION_DDOT = 0

CCSDS_OMM_VERS = 2.0
CREATION_DATE  = 
ORIGINATOR     = 

OBJECT_NAME    = SL-16 R/B
OBJECT_ID      = 1992-076B
CENTER_NAME    = EARTH
REF_FRAME      = TEME
TIME_SYSTEM    = UTC
MEAN_ELEMENT_THEORY = SGP/SGP4

EPOCH          = 2025-11-24T15:52:11.389152
MEAN_MOTION    = 14.16836768
ECCENTRICITY   = .0015104
INCLINATION    = 71.0012
RA_OF_ASC_NODE = 49.6129
ARG_OF_PERICENTER = 257.5134
MEAN_ANOMALY   = 254.5546

EPHEMERIS_TYPE = 0
CLASSIFICATION_TYPE = U
NORAD_CAT_ID   = 22220
ELEMENT_SET_NO = 999
REV_AT_EPOCH   = 70695
BSTAR          = .14382E-3
MEAN_MOTION_DOT = .241E-5
MEAN_MOTION_DDOT = 0

CCSDS_OMM_VERS = 2.0
CREATION_DATE  = 
ORIGINATOR     = 

OBJECT_NAME    = COSMOS 2221
OBJECT_ID      = 1992-080A
CENTER_NAME    = EARTH
REF_FRAME      = TEME
TIME_SYSTEM    = UTC
MEAN_ELEMENT_THEORY = SGP/SGP4

EPOCH          = 2025-11-24T16:30:44.216064
MEAN_MOTION    = 14.95660660
ECCENTRICITY   = .0014624
INCLINATION    = 82.5055
RA_OF_ASC_NODE = 19.6015
ARG_OF_PERICENTER = 179.3695
MEAN_ANOMALY   = 180.7548

EPHEMERIS_TYPE = 0
CLASSIFICATION_TYPE = U
NORAD_CAT_ID   = 22236
ELEMENT_SET_NO = 999
REV_AT_EPOCH   = 76509
BSTAR          = .2111E-3
MEAN_MOTION_DOT = .2377E-4
MEAN_MOTION_DDOT = 0

CCSDS_OMM_VERS = 2.0
CREATION_DATE  = 
ORIGINATOR     = 

OBJECT_NAME    = SL-16 R/B
OBJECT_ID      = 1992-093B
CENTER_NAME    = EARTH
REF_FRAME      = TEME
TIME_SYSTEM    = UTC
MEAN_ELEMENT_THEORY = SGP/SGP4

EPOCH          = 2025-11-24T03:46:53.419008
MEAN_MOTION    = 14.15427865
ECCENTRICITY   = .00020864
INCLINATION    = 71.0217
RA_OF_ASC_NODE = 225.8016
ARG_OF_PERICENTER = 126.8301
MEAN_ANOMALY   = 233.3014

EPHEMERIS_TYPE = 0
CLASSIFICATION_TYPE = U
NORAD_CAT_ID   = 22285
ELEMENT_SET_NO = 999
REV_AT_EPOCH   = 69822
BSTAR          = -.50549465E-4
MEAN_MOTION_DOT = -.146E-5
MEAN_MOTION_DDOT = 0

